[{"OBJECT_NAME":"STARLINK-35856","OBJECT_ID":"2025-293L","EPOCH":"2026-03-09T19:34:59.485728","MEAN_MOTION":14.98330046,"ECCENTRICITY":0.00028552,"INCLINATION":70.0021,"RA_OF_ASC_NODE":94.2635,"ARG_OF_PERICENTER":271.6812,"MEAN_ANOMALY":88.402,"EPHEMERIS_TYPE":0,"CLASSIFICATION_TYPE":"U","NORAD_CAT_ID":67013,"ELEMENT_SET_NO":999,"REV_AT_EPOCH":1490,"BSTAR":0.00042668337,"MEAN_MOTION_DOT":5.002e-5,"MEAN_MOTION_DDOT":0},{"OBJECT_NAME":"CZ-2C DEB","OBJECT_ID":"2009-061C","EPOCH":"2026-03-09T15:20:14.637120","MEAN_MOTION":14.99171478,"ECCENTRICITY":0.0032615,"INCLINATION":97.8461,"RA_OF_ASC_NODE":101.0533,"ARG_OF_PERICENTER":313.5449,"MEAN_ANOMALY":164.4427,"EPHEMERIS_TYPE":0,"CLASSIFICATION_TYPE":"U","NORAD_CAT_ID":36090,"ELEMENT_SET_NO":999,"REV_AT_EPOCH":86976,"BSTAR":0.0014405,"MEAN_MOTION_DOT":0.00017697,"MEAN_MOTION_DDOT":0}]
